[{"OBJECT_NAME":"STARLINK-36243","OBJECT_ID":"2025-298C","EPOCH":"2026-03-09T21:28:03.374400","MEAN_MOTION":14.98334013,"ECCENTRICITY":0.00013353,"INCLINATION":70.0023,"RA_OF_ASC_NODE":14.1188,"ARG_OF_PERICENTER":253.4431,"MEAN_ANOMALY":106.6581,"EPHEMERIS_TYPE":0,"CLASSIFICATION_TYPE":"U","NORAD_CAT_ID":67077,"ELEMENT_SET_NO":999,"REV_AT_EPOCH":1324,"BSTAR":0.00033175963,"MEAN_MOTION_DOT":3.868e-5,"MEAN_MOTION_DDOT":0},{"OBJECT_NAME":"CZ-6A DEB","OBJECT_ID":"2022-151XN","EPOCH":"2026-03-09T03:53:00.747744","MEAN_MOTION":14.96908336,"ECCENTRICITY":0.00415985,"INCLINATION":98.5971,"RA_OF_ASC_NODE":139.8978,"ARG_OF_PERICENTER":176.4411,"MEAN_ANOMALY":183.7112,"EPHEMERIS_TYPE":0,"CLASSIFICATION_TYPE":"U","NORAD_CAT_ID":55516,"ELEMENT_SET_NO":999,"REV_AT_EPOCH":17147,"BSTAR":0.005138713,"MEAN_MOTION_DOT":0.00060444,"MEAN_MOTION_DDOT":0}]
